[{"OBJECT_NAME":"STARLINK-32456","OBJECT_ID":"2024-216K","EPOCH":"2026-01-07T08:43:01.083072","MEAN_MOTION":15.27576738,"ECCENTRICITY":0.0001499,"INCLINATION":43.0005,"RA_OF_ASC_NODE":242.9142,"ARG_OF_PERICENTER":275.4047,"MEAN_ANOMALY":84.6633,"EPHEMERIS_TYPE":0,"CLASSIFICATION_TYPE":"U","NORAD_CAT_ID":62041,"ELEMENT_SET_NO":999,"REV_AT_EPOCH":6449,"BSTAR":0.00077183,"MEAN_MOTION_DOT":0.00021036,"MEAN_MOTION_DDOT":0},{"OBJECT_NAME":"STARLINK-32509","OBJECT_ID":"2024-216L","EPOCH":"2026-01-07T08:18:57.872160","MEAN_MOTION":15.27573777,"ECCENTRICITY":0.0001178,"INCLINATION":42.9969,"RA_OF_ASC_NODE":242.7876,"ARG_OF_PERICENTER":274.7786,"MEAN_ANOMALY":85.2931,"EPHEMERIS_TYPE":0,"CLASSIFICATION_TYPE":"U","NORAD_CAT_ID":62042,"ELEMENT_SET_NO":999,"REV_AT_EPOCH":6449,"BSTAR":0.0008314,"MEAN_MOTION_DOT":0.00022682,"MEAN_MOTION_DDOT":0},{"OBJECT_NAME":"STARLINK-32491","OBJECT_ID":"2024-216M","EPOCH":"2026-01-07T09:16:46.647264","MEAN_MOTION":15.27579541,"ECCENTRICITY":0.0001526,"INCLINATION":43.0003,"RA_OF_ASC_NODE":250.0108,"ARG_OF_PERICENTER":278.7166,"MEAN_ANOMALY":81.3513,"EPHEMERIS_TYPE":0,"CLASSIFICATION_TYPE":"U","NORAD_CAT_ID":62043,"ELEMENT_SET_NO":999,"REV_AT_EPOCH":6441,"BSTAR":0.00064542,"MEAN_MOTION_DOT":0.0001754,"MEAN_MOTION_DDOT":0},{"OBJECT_NAME":"STARLINK-32577","OBJECT_ID":"2024-216N","EPOCH":"2026-01-07T08:34:13.420992","MEAN_MOTION":15.27571197,"ECCENTRICITY":0.0001456,"INCLINATION":42.9983,"RA_OF_ASC_NODE":249.7861,"ARG_OF_PERICENTER":255.201,"MEAN_ANOMALY":104.868,"EPHEMERIS_TYPE":0,"CLASSIFICATION_TYPE":"U","NORAD_CAT_ID":62044,"ELEMENT_SET_NO":999,"REV_AT_EPOCH":6442,"BSTAR":0.00066834,"MEAN_MOTION_DOT":0.0001817,"MEAN_MOTION_DDOT":0},{"OBJECT_NAME":"STARLINK-32618","OBJECT_ID":"2024-216P","EPOCH":"2026-01-07T08:35:35.938176","MEAN_MOTION":15.27566202,"ECCENTRICITY":0.0001317,"INCLINATION":42.9999,"RA_OF_ASC_NODE":242.8725,"ARG_OF_PERICENTER":269.0954,"MEAN_ANOMALY":90.9746,"EPHEMERIS_TYPE":0,"CLASSIFICATION_TYPE":"U","NORAD_CAT_ID":62045,"ELEMENT_SET_NO":999,"REV_AT_EPOCH":6449,"BSTAR":0.00078395,"MEAN_MOTION_DOT":0.00021364,"MEAN_MOTION_DDOT":0},{"OBJECT_NAME":"STARLINK-32598","OBJECT_ID":"2024-216Q","EPOCH":"2026-01-07T08:57:34.841952","MEAN_MOTION":15.27624167,"ECCENTRICITY":2.36e-5,"INCLINATION":43.0003,"RA_OF_ASC_NODE":242.1309,"ARG_OF_PERICENTER":326.4564,"MEAN_ANOMALY":33.6272,"EPHEMERIS_TYPE":0,"CLASSIFICATION_TYPE":"U","NORAD_CAT_ID":62046,"ELEMENT_SET_NO":999,"REV_AT_EPOCH":6450,"BSTAR":0.00098382,"MEAN_MOTION_DOT":0.00026946,"MEAN_MOTION_DDOT":0},{"OBJECT_NAME":"STARLINK-32630","OBJECT_ID":"2024-216R","EPOCH":"2026-01-07T08:50:52.204992","MEAN_MOTION":15.27577369,"ECCENTRICITY":0.000106,"INCLINATION":42.9985,"RA_OF_ASC_NODE":249.873,"ARG_OF_PERICENTER":289.5742,"MEAN_ANOMALY":70.4995,"EPHEMERIS_TYPE":0,"CLASSIFICATION_TYPE":"U","NORAD_CAT_ID":62047,"ELEMENT_SET_NO":999,"REV_AT_EPOCH":6441,"BSTAR":0.0011513,"MEAN_MOTION_DOT":0.00031552,"MEAN_MOTION_DDOT":0},{"OBJECT_NAME":"STARLINK-32599","OBJECT_ID":"2024-216S","EPOCH":"2026-01-07T08:56:26.004480","MEAN_MOTION":15.27567835,"ECCENTRICITY":8.87e-5,"INCLINATION":42.9966,"RA_OF_ASC_NODE":249.9029,"ARG_OF_PERICENTER":271.6147,"MEAN_ANOMALY":88.4603,"EPHEMERIS_TYPE":0,"CLASSIFICATION_TYPE":"U","NORAD_CAT_ID":62048,"ELEMENT_SET_NO":999,"REV_AT_EPOCH":6441,"BSTAR":0.0010093,"MEAN_MOTION_DOT":0.00027605,"MEAN_MOTION_DDOT":0},{"OBJECT_NAME":"STARLINK-32473","OBJECT_ID":"2024-216T","EPOCH":"2026-01-07T08:22:39.656640","MEAN_MOTION":15.27574369,"ECCENTRICITY":0.0001445,"INCLINATION":42.9982,"RA_OF_ASC_NODE":242.8033,"ARG_OF_PERICENTER":270.8102,"MEAN_ANOMALY":89.2585,"EPHEMERIS_TYPE":0,"CLASSIFICATION_TYPE":"U","NORAD_CAT_ID":62049,"ELEMENT_SET_NO":999,"REV_AT_EPOCH":6333,"BSTAR":0.000665,"MEAN_MOTION_DOT":0.00018079,"MEAN_MOTION_DDOT":0},{"OBJECT_NAME":"STARLINK-32492","OBJECT_ID":"2024-216U","EPOCH":"2026-01-07T02:02:47.383296","MEAN_MOTION":15.27571404,"ECCENTRICITY":0.00012926,"INCLINATION":42.9986,"RA_OF_ASC_NODE":251.1855,"ARG_OF_PERICENTER":276.1918,"MEAN_ANOMALY":83.8786,"EPHEMERIS_TYPE":0,"CLASSIFICATION_TYPE":"U","NORAD_CAT_ID":62050,"ELEMENT_SET_NO":999,"REV_AT_EPOCH":6437,"BSTAR":0.0010314162,"MEAN_MOTION_DOT":0.00028221,"MEAN_MOTION_DDOT":0},{"OBJECT_NAME":"STARLINK-32496","OBJECT_ID":"2024-216V","EPOCH":"2026-01-07T09:11:13.403328","MEAN_MOTION":15.27582417,"ECCENTRICITY":0.0002227,"INCLINATION":43.0016,"RA_OF_ASC_NODE":249.9801,"ARG_OF_PERICENTER":264.1365,"MEAN_ANOMALY":95.9232,"EPHEMERIS_TYPE":0,"CLASSIFICATION_TYPE":"U","NORAD_CAT_ID":62051,"ELEMENT_SET_NO":999,"REV_AT_EPOCH":6441,"BSTAR":0.00081114,"MEAN_MOTION_DOT":0.00022128,"MEAN_MOTION_DDOT":0},{"OBJECT_NAME":"STARLINK-32495","OBJECT_ID":"2024-216W","EPOCH":"2026-01-07T15:44:15.999936","MEAN_MOTION":15.27636119,"ECCENTRICITY":0.0001202,"INCLINATION":43.0008,"RA_OF_ASC_NODE":247.7295,"ARG_OF_PERICENTER":250.114,"MEAN_ANOMALY":109.9582,"EPHEMERIS_TYPE":0,"CLASSIFICATION_TYPE":"U","NORAD_CAT_ID":62052,"ELEMENT_SET_NO":999,"REV_AT_EPOCH":6446,"BSTAR":0.001301,"MEAN_MOTION_DOT":0.00035774,"MEAN_MOTION_DDOT":0},{"OBJECT_NAME":"STARLINK-32494","OBJECT_ID":"2024-216X","EPOCH":"2026-01-07T08:30:31.100832","MEAN_MOTION":15.27572484,"ECCENTRICITY":0.0001513,"INCLINATION":42.9972,"RA_OF_ASC_NODE":249.7657,"ARG_OF_PERICENTER":277.0593,"MEAN_ANOMALY":83.0086,"EPHEMERIS_TYPE":0,"CLASSIFICATION_TYPE":"U","NORAD_CAT_ID":62053,"ELEMENT_SET_NO":999,"REV_AT_EPOCH":6441,"BSTAR":0.00065788,"MEAN_MOTION_DOT":0.00017881,"MEAN_MOTION_DDOT":0},{"OBJECT_NAME":"STARLINK-32408","OBJECT_ID":"2024-216Y","EPOCH":"2026-01-07T08:17:06.676224","MEAN_MOTION":15.27577995,"ECCENTRICITY":0.0001056,"INCLINATION":42.9968,"RA_OF_ASC_NODE":242.7755,"ARG_OF_PERICENTER":247.4826,"MEAN_ANOMALY":112.5914,"EPHEMERIS_TYPE":0,"CLASSIFICATION_TYPE":"U","NORAD_CAT_ID":62054,"ELEMENT_SET_NO":999,"REV_AT_EPOCH":6450,"BSTAR":0.0008793,"MEAN_MOTION_DOT":0.00024012,"MEAN_MOTION_DDOT":0},{"OBJECT_NAME":"STARLINK-32571","OBJECT_ID":"2024-216Z","EPOCH":"2026-01-07T15:08:40.931520","MEAN_MOTION":15.27592995,"ECCENTRICITY":9.74e-5,"INCLINATION":42.999,"RA_OF_ASC_NODE":240.6205,"ARG_OF_PERICENTER":290.0994,"MEAN_ANOMALY":69.9752,"EPHEMERIS_TYPE":0,"CLASSIFICATION_TYPE":"U","NORAD_CAT_ID":62055,"ELEMENT_SET_NO":999,"REV_AT_EPOCH":6464,"BSTAR":0.00069431,"MEAN_MOTION_DOT":0.000189,"MEAN_MOTION_DDOT":0},{"OBJECT_NAME":"STARLINK-11465 [DTC]","OBJECT_ID":"2024-217A","EPOCH":"2026-01-07T05:33:25.996032","MEAN_MOTION":15.69782139,"ECCENTRICITY":0.0002582,"INCLINATION":53.1573,"RA_OF_ASC_NODE":14.0185,"ARG_OF_PERICENTER":146.8498,"MEAN_ANOMALY":213.2682,"EPHEMERIS_TYPE":0,"CLASSIFICATION_TYPE":"U","NORAD_CAT_ID":62057,"ELEMENT_SET_NO":999,"REV_AT_EPOCH":6552,"BSTAR":0.00096801,"MEAN_MOTION_DOT":0.00118741,"MEAN_MOTION_DDOT":0}]
