STARLINK-32456          
1 62041U 24216K   26007.36320698  .00021036  00000+0  77183-3 0  9990
2 62041  43.0005 242.9142 0001499 275.4047  84.6633 15.27576738 64497
STARLINK-32509          
1 62042U 24216L   26007.34650315  .00022682  00000+0  83140-3 0  9999
2 62042  42.9969 242.7876 0001178 274.7786  85.2931 15.27573777 64491
STARLINK-32491          
1 62043U 24216M   26007.38665101  .00017540  00000+0  64542-3 0  9995
2 62043  43.0003 250.0108 0001526 278.7166  81.3513 15.27579541 64416
STARLINK-32577          
1 62044U 24216N   26007.35709978  .00018170  00000+0  66834-3 0  9990
2 62044  42.9983 249.7861 0001456 255.2010 104.8680 15.27571197 64429
STARLINK-32618          
1 62045U 24216P   26007.35805484  .00021364  00000+0  78395-3 0  9994
2 62045  42.9999 242.8725 0001317 269.0954  90.9746 15.27566202 64492
STARLINK-32598          
1 62046U 24216Q   26007.37331993  .00026946  00000+0  98382-3 0  9995
2 62046  43.0003 242.1309 0000236 326.4564  33.6272 15.27624167 64501
STARLINK-32630          
1 62047U 24216R   26007.36865978  .00031552  00000+0  11513-2 0  9999
2 62047  42.9985 249.8730 0001060 289.5742  70.4995 15.27577369 64416
STARLINK-32599          
1 62048U 24216S   26007.37252320  .00027605  00000+0  10093-2 0  9998
2 62048  42.9966 249.9029 0000887 271.6147  88.4603 15.27567835 64417
STARLINK-32473          
1 62049U 24216T   26007.34907010  .00018079  00000+0  66500-3 0  9999
2 62049  42.9982 242.8033 0001445 270.8102  89.2585 15.27574369 63334
STARLINK-32492          
1 62050U 24216U   26007.08527064  .00028221  00000+0  10314-2 0  9990
2 62050  42.9986 251.1855 0001292 276.1918  83.8786 15.27571404 64374
STARLINK-32496          
1 62051U 24216V   26007.38279402  .00022128  00000+0  81114-3 0  9991
2 62051  43.0016 249.9801 0002227 264.1365  95.9232 15.27582417 64410
STARLINK-32495          
1 62052U 24216W   26007.65574074  .00035774  00000+0  13010-2 0  9995
2 62052  43.0008 247.7295 0001202 250.1140 109.9582 15.27636119 64461
STARLINK-32494          
1 62053U 24216X   26007.35452663  .00017881  00000+0  65788-3 0  9991
2 62053  42.9972 249.7657 0001513 277.0593  83.0086 15.27572484 64419
STARLINK-32408          
1 62054U 24216Y   26007.34521616  .00024012  00000+0  87930-3 0  9993
2 62054  42.9968 242.7755 0001056 247.4826 112.5914 15.27577995 64509
STARLINK-32571          
1 62055U 24216Z   26007.63102930  .00018900  00000+0  69431-3 0  9995
2 62055  42.9990 240.6205 0000974 290.0994  69.9752 15.27592995 64647
STARLINK-11465 [DTC]    
1 62057U 24217A   26007.23155088  .00118741  00000+0  96801-3 0  9991
2 62057  53.1573  14.0185 0002582 146.8498 213.2682 15.69782139 65525
